UNKNOWN                 
1 84188U          26019.65588816  .00178951  00000+0  74914-1 0  9990
2 84188  65.0543 224.4552 3641257  14.5599 353.6813  7.84499452 44198
UNKNOWN                 
1 84232U          26019.27448124  .00020474  00000+0  16754-1 0  9999
2 84232  20.3107 252.5071 6553043 103.4393 332.4449  3.18359520105882
UNKNOWN                 
1 84236U          26008.25446343  .00000478  00000+0  37931-2 0  9993
2 84236   9.4181 323.3148 6893720 117.7230 326.7545  2.62563797114676
UNKNOWN                 
1 84292U          26017.52809114  .00003816  00000+0  21266-2 0  9997
2 84292  23.8229 110.7784 4562726 326.2180  11.6771  6.21787762230290
UNKNOWN                 
1 84406U          26008.21880314  .00000785  00000+0  43231-2 0  9999
2 84406 101.7141 157.7019 0042055 340.3466 199.3092 12.67381377 52646
UNKNOWN                 
1 84407U          26016.92332814  .00000260  00000+0  12077-1 0  9995
2 84407  19.4644 312.1530 7202436  80.6851 347.5491  2.05777016 76595
UNKNOWN                 
1 84575U          26018.68165342 -.00000262  00000+0 -11972-1 0  9993
2 84575  18.0546 146.3005 7104505  44.8612 353.9722  2.19881415 66272
UNKNOWN                 
1 84932U          26019.61350831  .00000954  00000+0  74541-2 0  9991
2 84932   2.0280 221.2170 6578204  98.6643 186.1890  3.00025903132914
UNKNOWN                 
1 85004U          26019.42033354  .00001180  00000+0  37406-3 0  9991
2 85004  98.4261 354.9088 0048038  50.0461 104.4337 14.41185631636321
UNKNOWN                 
1 85010U          26019.10239376  .00000896  00000+0  97859-3 0  9996
2 85010  99.2489 244.8715 0024928 154.9690 356.7290 13.75140444609052
UNKNOWN                 
1 85015U          26019.12568878  .00000477  00000+0  10039-3 0  9995
2 85015  74.0503 326.6569 0016155 227.5009 132.4794 14.62341849648077
UNKNOWN                 
1 85023U          26019.03683704  .00025680  00000+0  36712-2 0  9998
2 85023  99.8471  47.5825 0002368 191.0608 198.3543 14.76628801634338
