CCSDS_OMM_VERS = 2.0
CREATION_DATE  = 
ORIGINATOR     = 

OBJECT_NAME    = UNKNOWN
OBJECT_ID      = 
CENTER_NAME    = EARTH
REF_FRAME      = TEME
TIME_SYSTEM    = UTC
MEAN_ELEMENT_THEORY = SGP/SGP4

EPOCH          = 2026-01-19T15:44:28.737024
MEAN_MOTION    = 7.84499452
ECCENTRICITY   = .3641257
INCLINATION    = 65.0543
RA_OF_ASC_NODE = 224.4552
ARG_OF_PERICENTER = 14.5599
MEAN_ANOMALY   = 353.6813

EPHEMERIS_TYPE = 0
CLASSIFICATION_TYPE = U
NORAD_CAT_ID   = 84188
ELEMENT_SET_NO = 999
REV_AT_EPOCH   = 4419
BSTAR          = .74914E-1
MEAN_MOTION_DOT = .178951E-2
MEAN_MOTION_DDOT = 0

CCSDS_OMM_VERS = 2.0
CREATION_DATE  = 
ORIGINATOR     = 

OBJECT_NAME    = UNKNOWN
OBJECT_ID      = 
CENTER_NAME    = EARTH
REF_FRAME      = TEME
TIME_SYSTEM    = UTC
MEAN_ELEMENT_THEORY = SGP/SGP4

EPOCH          = 2026-01-19T06:35:15.179136
MEAN_MOTION    = 3.18359520
ECCENTRICITY   = .6553043
INCLINATION    = 20.3107
RA_OF_ASC_NODE = 252.5071
ARG_OF_PERICENTER = 103.4393
MEAN_ANOMALY   = 332.4449

EPHEMERIS_TYPE = 0
CLASSIFICATION_TYPE = U
NORAD_CAT_ID   = 84232
ELEMENT_SET_NO = 999
REV_AT_EPOCH   = 10588
BSTAR          = .16754E-1
MEAN_MOTION_DOT = .20474E-3
MEAN_MOTION_DDOT = 0

CCSDS_OMM_VERS = 2.0
CREATION_DATE  = 
ORIGINATOR     = 

OBJECT_NAME    = UNKNOWN
OBJECT_ID      = 
CENTER_NAME    = EARTH
REF_FRAME      = TEME
TIME_SYSTEM    = UTC
MEAN_ELEMENT_THEORY = SGP/SGP4

EPOCH          = 2026-01-08T06:06:25.640352
MEAN_MOTION    = 2.62563797
ECCENTRICITY   = .689372
INCLINATION    = 9.4181
RA_OF_ASC_NODE = 323.3148
ARG_OF_PERICENTER = 117.7230
MEAN_ANOMALY   = 326.7545

EPHEMERIS_TYPE = 0
CLASSIFICATION_TYPE = U
NORAD_CAT_ID   = 84236
ELEMENT_SET_NO = 999
REV_AT_EPOCH   = 11467
BSTAR          = .37931E-2
MEAN_MOTION_DOT = .478E-5
MEAN_MOTION_DDOT = 0

CCSDS_OMM_VERS = 2.0
CREATION_DATE  = 
ORIGINATOR     = 

OBJECT_NAME    = UNKNOWN
OBJECT_ID      = 
CENTER_NAME    = EARTH
REF_FRAME      = TEME
TIME_SYSTEM    = UTC
MEAN_ELEMENT_THEORY = SGP/SGP4

EPOCH          = 2026-01-17T12:40:27.074496
MEAN_MOTION    = 6.21787762
ECCENTRICITY   = .4562726
INCLINATION    = 23.8229
RA_OF_ASC_NODE = 110.7784
ARG_OF_PERICENTER = 326.2180
MEAN_ANOMALY   = 11.6771

EPHEMERIS_TYPE = 0
CLASSIFICATION_TYPE = U
NORAD_CAT_ID   = 84292
ELEMENT_SET_NO = 999
REV_AT_EPOCH   = 23029
BSTAR          = .21266E-2
MEAN_MOTION_DOT = .3816E-4
MEAN_MOTION_DDOT = 0

CCSDS_OMM_VERS = 2.0
CREATION_DATE  = 
ORIGINATOR     = 

OBJECT_NAME    = UNKNOWN
OBJECT_ID      = 
CENTER_NAME    = EARTH
REF_FRAME      = TEME
TIME_SYSTEM    = UTC
MEAN_ELEMENT_THEORY = SGP/SGP4

EPOCH          = 2026-01-08T05:15:04.591296
MEAN_MOTION    = 12.67381377
ECCENTRICITY   = .0042055
INCLINATION    = 101.7141
RA_OF_ASC_NODE = 157.7019
ARG_OF_PERICENTER = 340.3466
MEAN_ANOMALY   = 199.3092

EPHEMERIS_TYPE = 0
CLASSIFICATION_TYPE = U
NORAD_CAT_ID   = 84406
ELEMENT_SET_NO = 999
REV_AT_EPOCH   = 5264
BSTAR          = .43231E-2
MEAN_MOTION_DOT = .785E-5
MEAN_MOTION_DDOT = 0

CCSDS_OMM_VERS = 2.0
CREATION_DATE  = 
ORIGINATOR     = 

OBJECT_NAME    = UNKNOWN
OBJECT_ID      = 
CENTER_NAME    = EARTH
REF_FRAME      = TEME
TIME_SYSTEM    = UTC
MEAN_ELEMENT_THEORY = SGP/SGP4

EPOCH          = 2026-01-16T22:09:35.551296
MEAN_MOTION    = 2.05777016
ECCENTRICITY   = .7202436
INCLINATION    = 19.4644
RA_OF_ASC_NODE = 312.1530
ARG_OF_PERICENTER = 80.6851
MEAN_ANOMALY   = 347.5491

EPHEMERIS_TYPE = 0
CLASSIFICATION_TYPE = U
NORAD_CAT_ID   = 84407
ELEMENT_SET_NO = 999
REV_AT_EPOCH   = 7659
BSTAR          = .12077E-1
MEAN_MOTION_DOT = .26E-5
MEAN_MOTION_DDOT = 0

CCSDS_OMM_VERS = 2.0
CREATION_DATE  = 
ORIGINATOR     = 

OBJECT_NAME    = UNKNOWN
OBJECT_ID      = 
CENTER_NAME    = EARTH
REF_FRAME      = TEME
TIME_SYSTEM    = UTC
MEAN_ELEMENT_THEORY = SGP/SGP4

EPOCH          = 2026-01-18T16:21:34.855488
MEAN_MOTION    = 2.19881415
ECCENTRICITY   = .7104505
INCLINATION    = 18.0546
RA_OF_ASC_NODE = 146.3005
ARG_OF_PERICENTER = 44.8612
MEAN_ANOMALY   = 353.9722

EPHEMERIS_TYPE = 0
CLASSIFICATION_TYPE = U
NORAD_CAT_ID   = 84575
ELEMENT_SET_NO = 999
REV_AT_EPOCH   = 6627
BSTAR          = -.11972E-1
MEAN_MOTION_DOT = -.262E-5
MEAN_MOTION_DDOT = 0

CCSDS_OMM_VERS = 2.0
CREATION_DATE  = 
ORIGINATOR     = 

OBJECT_NAME    = UNKNOWN
OBJECT_ID      = 
CENTER_NAME    = EARTH
REF_FRAME      = TEME
TIME_SYSTEM    = UTC
MEAN_ELEMENT_THEORY = SGP/SGP4

EPOCH          = 2026-01-19T14:43:27.117984
MEAN_MOTION    = 3.00025903
ECCENTRICITY   = .6578204
INCLINATION    = 2.0280
RA_OF_ASC_NODE = 221.2170
ARG_OF_PERICENTER = 98.6643
MEAN_ANOMALY   = 186.1890

EPHEMERIS_TYPE = 0
CLASSIFICATION_TYPE = U
NORAD_CAT_ID   = 84932
ELEMENT_SET_NO = 999
REV_AT_EPOCH   = 13291
BSTAR          = .74541E-2
MEAN_MOTION_DOT = .954E-5
MEAN_MOTION_DDOT = 0

CCSDS_OMM_VERS = 2.0
CREATION_DATE  = 
ORIGINATOR     = 

OBJECT_NAME    = UNKNOWN
OBJECT_ID      = 
CENTER_NAME    = EARTH
REF_FRAME      = TEME
TIME_SYSTEM    = UTC
MEAN_ELEMENT_THEORY = SGP/SGP4

EPOCH          = 2026-01-19T10:05:16.817856
MEAN_MOTION    = 14.41185631
ECCENTRICITY   = .0048038
INCLINATION    = 98.4261
RA_OF_ASC_NODE = 354.9088
ARG_OF_PERICENTER = 50.0461
MEAN_ANOMALY   = 104.4337

EPHEMERIS_TYPE = 0
CLASSIFICATION_TYPE = U
NORAD_CAT_ID   = 85004
ELEMENT_SET_NO = 999
REV_AT_EPOCH   = 63632
BSTAR          = .37406E-3
MEAN_MOTION_DOT = .118E-4
MEAN_MOTION_DDOT = 0

CCSDS_OMM_VERS = 2.0
CREATION_DATE  = 
ORIGINATOR     = 

OBJECT_NAME    = UNKNOWN
OBJECT_ID      = 
CENTER_NAME    = EARTH
REF_FRAME      = TEME
TIME_SYSTEM    = UTC
MEAN_ELEMENT_THEORY = SGP/SGP4

EPOCH          = 2026-01-19T02:27:26.820864
MEAN_MOTION    = 13.75140444
ECCENTRICITY   = .0024928
INCLINATION    = 99.2489
RA_OF_ASC_NODE = 244.8715
ARG_OF_PERICENTER = 154.9690
MEAN_ANOMALY   = 356.7290

EPHEMERIS_TYPE = 0
CLASSIFICATION_TYPE = U
NORAD_CAT_ID   = 85010
ELEMENT_SET_NO = 999
REV_AT_EPOCH   = 60905
BSTAR          = .97859E-3
MEAN_MOTION_DOT = .896E-5
MEAN_MOTION_DDOT = 0

CCSDS_OMM_VERS = 2.0
CREATION_DATE  = 
ORIGINATOR     = 

OBJECT_NAME    = UNKNOWN
OBJECT_ID      = 
CENTER_NAME    = EARTH
REF_FRAME      = TEME
TIME_SYSTEM    = UTC
MEAN_ELEMENT_THEORY = SGP/SGP4

EPOCH          = 2026-01-19T03:00:59.510592
MEAN_MOTION    = 14.62341849
ECCENTRICITY   = .0016155
INCLINATION    = 74.0503
RA_OF_ASC_NODE = 326.6569
ARG_OF_PERICENTER = 227.5009
MEAN_ANOMALY   = 132.4794

EPHEMERIS_TYPE = 0
CLASSIFICATION_TYPE = U
NORAD_CAT_ID   = 85015
ELEMENT_SET_NO = 999
REV_AT_EPOCH   = 64807
BSTAR          = .10039E-3
MEAN_MOTION_DOT = .477E-5
MEAN_MOTION_DDOT = 0

CCSDS_OMM_VERS = 2.0
CREATION_DATE  = 
ORIGINATOR     = 

OBJECT_NAME    = UNKNOWN
OBJECT_ID      = 
CENTER_NAME    = EARTH
REF_FRAME      = TEME
TIME_SYSTEM    = UTC
MEAN_ELEMENT_THEORY = SGP/SGP4

EPOCH          = 2026-01-19T00:53:02.720256
MEAN_MOTION    = 14.76628801
ECCENTRICITY   = .0002368
INCLINATION    = 99.8471
RA_OF_ASC_NODE = 47.5825
ARG_OF_PERICENTER = 191.0608
MEAN_ANOMALY   = 198.3543

EPHEMERIS_TYPE = 0
CLASSIFICATION_TYPE = U
NORAD_CAT_ID   = 85023
ELEMENT_SET_NO = 999
REV_AT_EPOCH   = 63433
BSTAR          = .36712E-2
MEAN_MOTION_DOT = .2568E-3
MEAN_MOTION_DDOT = 0

